NORAD_CAT_ID,OBJECT_NAME,OBJECT_TYPE,EPOCH,MEAN_MOTION,ECCENTRICITY,INCLINATION,RA_OF_ASC_NODE,ARG_OF_PERICENTER,MEAN_ANOMALY,BSTAR,MEAN_MOTION_DOT,MEAN_MOTION_DDOT,TLE_LINE0,TLE_LINE1,TLE_LINE2,SEMIMAJOR_AXIS,PERIOD,APOGEE,PERIGEE,DECAYED
53720.0,STARLINK-4642,PAYLOAD,2024-06-22 10:15:13,15.08838571,0.0001193,53.2155,180.7891,86.7595,273.3533,1.0025e-05,-1.28e-06,0.0,0 STARLINK-4642,1 53720U 22107W   24174.42724347 -.00000128  00000-0  10025-4 0  9994,2 53720  53.2155 180.7891 0001193  86.7595 273.3533 15.08838571100023,6917.885,95.438,540.575,538.924,0.0
53720.0,STARLINK-4642,PAYLOAD,2024-06-23 05:19:51,15.08842756,0.0001244,53.2157,177.2207,87.7696,272.3438,1.686e-06,-2.61e-06,0.0,0 STARLINK-4642,1 53720U 22107W   24175.22212043 -.00000261  00000-0  16860-5 0  9990,2 53720  53.2157 177.2207 0001244  87.7696 272.3438 15.08842756 99689,6917.872,95.437,540.598,538.876,0.0
53720.0,STARLINK-4642,PAYLOAD,2024-06-23 06:55:14,15.08841933,0.00013,53.216,176.9236,99.2279,260.886,1.241e-05,-9e-07,0.0,0 STARLINK-4642,1 53720U 22107W   24175.28835999 -.00000090  00000-0  12410-4 0  9993,2 53720  53.2160 176.9236 0001300  99.2279 260.8860 15.08841933100151,6917.874,95.437,540.639,538.84,0.0
53720.0,STARLINK-4642,PAYLOAD,2024-06-24 06:46:01,15.08837067,0.0001279,53.2159,172.4635,95.1583,264.9555,4.265e-05,3.91e-06,0.0,0 STARLINK-4642,1 53720U 22107W   24176.28196187  .00000391  00000-0  42650-4 0  9995,2 53720  53.2159 172.4635 0001279  95.1583 264.9555 15.08837067 99843,6917.889,95.438,540.639,538.87,0.0
53720.0,STARLINK-4642,PAYLOAD,2024-06-25 06:36:48,15.08836285,0.000131,53.216,168.0025,93.4413,266.6729,4.989e-06,-2.08e-06,0.0,0 STARLINK-4642,1 53720U 22107W   24177.27556556 -.00000208  00000-0  49890-5 0  9997,2 53720  53.2160 168.0025 0001310  93.4413 266.6729 15.08836285100451,6917.892,95.438,540.663,538.851,0.0
53720.0,STARLINK-4642,PAYLOAD,2024-06-26 04:52:12,15.08838272,0.000132,53.2159,163.8406,93.9757,266.1386,4.763e-05,4.7e-06,0.0,0 STARLINK-4642,1 53720U 22107W   24178.20292462  .00000470  00000-0  47630-4 0  9993,2 53720  53.2159 163.8406 0001320  93.9757 266.1386 15.08838272100139,6917.886,95.438,540.664,538.838,0.0
53720.0,STARLINK-4642,PAYLOAD,2024-06-26 06:27:35,15.08839604,0.0001313,53.2158,163.5418,88.8512,271.263,5.58e-05,6e-06,0.0,0 STARLINK-4642,1 53720U 22107W   24178.26916368  .00000600  00000-0  55800-4 0  9990,2 53720  53.2158 163.5418 0001313  88.8512 271.2630 15.08839604100603,6917.882,95.438,540.655,538.838,0.0
53720.0,STARLINK-4642,PAYLOAD,2024-06-27 06:18:22,15.08839821,0.0001316,53.2157,159.079,85.0861,275.0281,6.7227e-05,7.82e-06,0.0,0 STARLINK-4642,1 53720U 22107W   24179.26276443  .00000782  00000-0  67227-4 0  9991,2 53720  53.2157 159.0790 0001316  85.0861 275.0281 15.08839821100294,6917.881,95.438,540.656,538.836,0.0
53720.0,STARLINK-4642,PAYLOAD,2024-06-27 15:50:41,15.08841085,0.0001291,53.2156,157.2968,90.2208,269.8932,6.709e-05,7.8e-06,0.0,0 STARLINK-4642,1 53720U 22107W   24179.66020368  .00000780  00000-0  67090-4 0  9994,2 53720  53.2156 157.2968 0001291  90.2208 269.8932 15.08841085100812,6917.877,95.437,540.635,538.849,0.0
53720.0,STARLINK-4642,PAYLOAD,2024-06-28 06:09:09,15.08843302,0.0001318,53.2155,154.6202,93.4988,266.6154,4.86e-05,4.86e-06,0.0,0 STARLINK-4642,1 53720U 22107W   24180.25636356  .00000486  00000-0  48600-4 0  9990,2 53720  53.2155 154.6202 0001318  93.4988 266.6154 15.08843302100908,6917.87,95.437,540.647,538.824,0.0
53720.0,STARLINK-4642,PAYLOAD,2024-06-29 04:24:33,15.08846676,0.0001284,53.2155,150.4578,88.8378,271.2761,8.0225e-05,9.89e-06,0.0,0 STARLINK-4642,1 53720U 22107W   24181.18371850  .00000989  00000-0  80225-4 0  9995,2 53720  53.2155 150.4578 0001284  88.8378 271.2761 15.08846676100588,6917.86,95.437,540.613,538.837,0.0
53720.0,STARLINK-4642,PAYLOAD,2024-06-29 21:53:48,15.0883932,0.0002241,53.2145,147.1865,92.1128,268.0121,7.3082e-05,8.75e-06,0.0,0 STARLINK-4642,1 53720U 22107W   24181.91236435  .00000875  00000-0  73082-4 0  9992,2 53720  53.2145 147.1865 0002241  92.1128 268.0121 15.08839320101150,6917.882,95.438,541.298,538.197,0.0
53720.0,STARLINK-4642,PAYLOAD,2024-06-30 04:15:22,15.0880964,0.0001377,53.2155,145.9989,99.6637,260.451,0.00014204,1.972e-05,0.0,0 STARLINK-4642,1 53720U 22107W   24182.17733866  .00001972  00000-0  14204-3 0  9990,2 53720  53.2155 145.9989 0001377  99.6637 260.4510 15.08809640100733,6917.973,95.439,540.791,538.886,0.0
53720.0,STARLINK-4642,PAYLOAD,2024-06-30 07:26:08,15.088201,0.000145,53.2158,145.4019,111.8251,248.2895,5.3621e-05,5.65e-06,0.0,0 STARLINK-4642,1 53720U 22107W   24182.30981610  .00000565  00000-0  53621-4 0  9991,2 53720  53.2158 145.4019 0001450 111.8251 248.2895 15.08820100100752,6917.941,95.439,540.809,538.803,0.0
53720.0,STARLINK-4642,PAYLOAD,2024-07-01 04:06:08,15.08842422,0.0001275,53.2158,141.5383,90.7296,269.3842,-1.3629e-06,-3.1e-06,0.0,0 STARLINK-4642,1 53720U 22107W   24183.17092794 -.00000310  00000-0 -13629-5 0  9998,2 53720  53.2158 141.5383 0001275  90.7296 269.3842 15.08842422100883,6917.873,95.437,540.62,538.856,0.0
53720.0,STARLINK-4642,PAYLOAD,2024-07-01 07:16:54,15.08844349,0.0001344,53.2159,140.9431,93.3869,266.7277,3.4754e-05,2.65e-06,0.0,0 STARLINK-4642,1 53720U 22107W   24183.30340615  .00000265  00000-0  34754-4 0  9999,2 53720  53.2159 140.9431 0001344  93.3869 266.7277 15.08844349101360,6917.867,95.437,540.662,538.802,0.0
53720.0,STARLINK-4642,PAYLOAD,2024-07-01 21:35:23,15.08828504,0.0001432,53.2162,138.2667,99.6558,260.4596,0.00021418,3.121e-05,0.0,0 STARLINK-4642,1 53720U 22107W   24183.89957378  .00003121  00000-0  21418-3 0  9999,2 53720  53.2162 138.2667 0001432  99.6558 260.4596 15.08828504100995,6917.916,95.438,540.771,538.79,0.0
53720.0,STARLINK-4642,PAYLOAD,2024-07-02 13:29:14,15.08844927,0.0001302,53.2153,135.2933,94.1154,265.9987,0.00024464,3.608e-05,0.0,0 STARLINK-4642,1 53720U 22107W   24184.56197081  .00003608  00000-0  24464-3 0  9995,2 53720  53.2153 135.2933 0001302  94.1154 265.9987 15.08844927101550,6917.865,95.437,540.631,538.83,0.0
53720.0,STARLINK-4642,PAYLOAD,2024-07-02 19:50:47,15.0884156,0.0001463,53.2171,134.1075,96.8348,263.2811,0.00017004,2.419e-05,0.0,0 STARLINK-4642,1 53720U 22107W   24184.82693350  .00002419  00000-0  17004-3 0  9995,2 53720  53.2171 134.1075 0001463  96.8348 263.2811 15.08841560101598,6917.876,95.437,540.753,538.729,0.0
53720.0,STARLINK-4642,PAYLOAD,2024-07-03 03:47:42,15.08837079,0.0001367,53.2154,132.6172,92.6988,267.4161,-5.6419e-06,-3.78e-06,0.0,0 STARLINK-4642,1 53720U 22107W   24185.15813528 -.00000378  00000-0 -56419-5 0  9992,2 53720  53.2154 132.6172 0001367  92.6988 267.4161 15.08837079101186,6917.889,95.438,540.7,538.809,0.0
53720.0,STARLINK-4642,PAYLOAD,2024-07-03 13:20:01,15.08850782,0.0001355,53.2159,130.8328,90.279,269.8358,0.00018403,2.643e-05,0.0,0 STARLINK-4642,1 53720U 22107W   24185.55556789  .00002643  00000-0  18403-3 0  9993,2 53720  53.2159 130.8328 0001355  90.2790 269.8358 15.08850782101243,6917.847,95.437,540.65,538.775,0.0
53720.0,STARLINK-4642,PAYLOAD,2024-07-04 03:38:30,15.08832473,0.0001395,53.2143,128.1561,86.2167,273.8985,-3.7455e-05,-8.84e-06,0.0,0 STARLINK-4642,1 53720U 22107W   24186.15173887 -.00000884  00000-0 -37455-4 0  9990,2 53720  53.2143 128.1561 0001395  86.2167 273.8985 15.08832473101330,6917.903,95.438,540.733,538.803,0.0
53720.0,STARLINK-4642,PAYLOAD,2024-07-04 13:10:48,15.08845374,0.0001532,53.215,126.371,84.2946,275.822,0.00020728,3.013e-05,0.0,0 STARLINK-4642,1 53720U 22107W   24186.54917514  .00003013  00000-0  20728-3 0  9995,2 53720  53.2150 126.3710 0001532  84.2946 275.8220 15.08845374101394,6917.864,95.437,540.789,538.669,0.0
53720.0,STARLINK-4642,PAYLOAD,2024-07-05 01:53:54,15.08840336,0.0001507,53.2158,123.9911,84.6966,275.4198,0.00011699,1.574e-05,0.0,0 STARLINK-4642,1 53720U 22107W   24187.07909757  .00001574  00000-0  11699-3 0  9991,2 53720  53.2158 123.9911 0001507  84.6966 275.4198 15.08840336101478,6917.879,95.438,540.787,538.702,0.0
53720.0,STARLINK-4642,PAYLOAD,2024-07-05 13:01:35,15.08859232,0.0001549,53.2162,121.9067,87.8158,272.3012,0.00044635,6.826e-05,0.0,0 STARLINK-4642,1 53720U 22107W   24187.54277035  .00006826  00000-0  44635-3 0  9991,2 53720  53.2162 121.9067 0001549  87.8158 272.3012 15.08859232101541,6917.822,95.436,540.758,538.615,0.0
53720.0,STARLINK-4642,PAYLOAD,2024-07-06 01:44:40,15.08838069,0.0001292,53.2146,119.5321,87.9324,272.1816,3.3277e-06,-2.35e-06,0.0,0 STARLINK-4642,1 53720U 22107W   24188.07269539 -.00000235  00000-0  33277-5 0  9991,2 53720  53.2146 119.5321 0001292  87.9324 272.1816 15.08838069101624,6917.886,95.438,540.645,538.858,0.0
53720.0,STARLINK-4642,PAYLOAD,2024-07-06 12:52:22,15.08845602,0.0001403,53.215,117.4514,86.267,273.8482,0.00083241,0.00012987,0.0,0 STARLINK-4642,1 53720U 22107W   24188.53637572  .00012987  00000-0  83241-3 0  9998,2 53720  53.2150 117.4514 0001403  86.2670 273.8482 15.08845602102157,6917.863,95.437,540.699,538.758,0.0
53720.0,STARLINK-4642,PAYLOAD,2024-07-06 19:13:55,15.08840745,0.0001819,53.217,116.2606,100.4421,259.6777,0.00042434,6.472e-05,0.0,0 STARLINK-4642,1 53720U 22107W   24188.80133795  .00006472  00000-0  42434-3 0  9997,2 53720  53.2170 116.2606 0001819 100.4421 259.6777 15.08840745102198,6917.878,95.438,541.001,538.485,0.0
53720.0,STARLINK-4642,PAYLOAD,2024-07-07 01:35:28,15.08838652,0.0001641,53.2173,115.0715,102.2667,257.8509,0.00015084,2.113e-05,0.0,0 STARLINK-4642,1 53720U 22107W   24189.06629871  .00002113  00000-0  15084-3 0  9990,2 53720  53.2173 115.0715 0001641 102.2667 257.8509 15.08838652102236,6917.885,95.438,540.885,538.614,0.0
53720.0,STARLINK-4642,PAYLOAD,2024-07-07 19:04:42,15.08844795,0.0001431,53.2166,111.8018,95.11,265.0055,0.0003255,4.897e-05,0.0,0 STARLINK-4642,1 53720U 22107W   24189.79493810  .00004897  00000-0  32550-3 0  9990,2 53720  53.2166 111.8018 0001431  95.1100 265.0055 15.08844795101889,6917.866,95.437,540.721,538.741,0.0
